OBJECT_NAME,OBJECT_ID,EPOCH,MEAN_MOTION,ECCENTRICITY,INCLINATION,RA_OF_ASC_NODE,ARG_OF_PERICENTER,MEAN_ANOMALY,EPHEMERIS_TYPE,CLASSIFICATION_TYPE,NORAD_CAT_ID,ELEMENT_SET_NO,REV_AT_EPOCH,BSTAR,MEAN_MOTION_DOT,MEAN_MOTION_DDOT
TDRS 13,2017-047A,2026-06-26T22:45:52.431264,1.00272686,.00150958,3.4539,2.9816,107.2592,134.8666,0,U,42915,999,3244,0,-.9E-6,0
QZS-3 (MICHIBIKI-3),2017-048A,2026-06-26T21:42:42.006240,1.00272025,.00022793,0.0678,147.8339,304.0996,275.8116,0,U,42917,999,3235,0,-.336E-5,0
AMAZONAS 5,2017-053A,2026-06-26T19:49:50.305152,1.00272475,.00019381,0.0317,326.0602,89.2725,96.0689,0,U,42934,999,3214,0,-.271E-5,0
ASIASAT 9,2017-057A,2026-06-26T21:41:19.637664,1.00265208,.00024438,0.0434,55.4010,35.9744,271.1398,0,U,42942,999,3195,0,0,0
INTELSAT 37E (IS-37E),2017-059A,2026-06-26T22:43:46.835904,1.00271504,.00028945,0.0045,90.6455,4.0163,143.3493,0,U,42950,999,3216,0,-.129E-5,0
BSAT-4A,2017-059B,2026-06-26T21:37:49.973376,1.00271162,.00042307,0.0360,17.2101,57.3191,274.7770,0,U,42951,999,3189,0,-.339E-5,0
QZS-4 (MICHIBIKI-4),2017-062A,2026-06-26T08:02:03.810048,1.00296962,.0746721,40.1041,343.3683,268.2556,281.2054,0,U,42965,999,3189,0,-.355E-5,0
SES-11 (ECHOSTAR 105),2017-063A,2026-06-26T22:19:09.921216,1.00271734,.00029915,0.0314,306.9023,145.4380,52.5543,0,U,42967,999,3182,0,-.78E-6,0
KOREASAT 5A,2017-067A,2026-06-26T21:38:42.388800,1.00271912,.00008579,0.0102,346.7697,101.3365,264.7436,0,U,42984,999,3162,0,-.347E-5,0
ALCOMSAT 1,2017-078A,2026-06-26T22:42:02.004192,1.00269952,.000267,0.0211,18.6482,73.2355,138.8877,0,U,43039,999,3139,0,0,0
SBIRS GEO-3 (USA 282),2018-009A,2026-06-26T18:38:19.457376,1.00272657,.00022939,2.1908,12.5664,75.5982,306.9091,0,U,43162,999,3094,0,.138E-5,0
AL YAH 3,2018-012A,2026-06-26T22:43:24.371904,1.00272112,.00041674,1.5767,83.0038,9.9835,142.8139,0,U,43174,999,3094,0,-.145E-5,0
SES-14,2018-012B,2026-06-26T17:27:22.588992,1.00271622,.00012554,0.0158,25.1497,67.1059,36.9323,0,U,43175,999,712,0,-.267E-5,0
GOES 17,2018-022A,2026-06-26T22:23:39.490080,1.00272726,.00007086,0.9614,85.5525,25.0503,50.8525,0,U,43226,999,3052,0,-.172E-5,0
HISPASAT 30W-6,2018-023A,2026-06-26T10:41:58.499808,1.00273554,.0005973,0.0436,43.2096,33.8480,327.9970,0,U,43228,999,3049,0,-.205E-5,0
SUPERBIRD-B3,2018-033A,2026-06-26T21:52:41.049408,1.00276687,.00013369,0.0160,348.0005,109.2975,307.9054,0,U,43271,999,3015,0,-.8E-6,0
HYLAS 4,2018-033B,2026-06-24T19:19:48.484128,1.00269267,.00010305,0.0258,22.8939,96.9112,49.5742,0,U,43272,999,3014,0,0,0
IRNSS-1I,2018-035A,2026-06-24T19:11:38.629824,1.00275960,.00176215,28.7725,74.0767,182.3144,359.3363,0,U,43286,999,3015,0,.66E-6,0
USA 283,2018-036A,2026-06-25T09:48:28.433088,1.00269479,.0000352,0.0077,1.2048,95.8048,97.7845,0,U,43339,999,2537,0,0,0
COSMOS 2526,2018-037A,2026-06-26T01:11:05.728704,1.00269587,.00005797,0.0264,47.8004,196.3187,175.8792,0,U,43432,999,3004,0,-.334E-5,0
APSTAR-6C,2018-041A,2026-06-26T18:19:21.274752,1.00271266,.0000717,0.0216,353.2606,18.4932,311.9826,0,U,43450,999,2990,0,-.306E-5,0
BANGABANDHUSAT-1,2018-044A,2026-06-26T21:40:27.222240,1.00272367,.000206,0.0168,51.4453,48.4752,259.3153,0,U,43463,999,2980,0,-.351E-5,0
SES-12,2018-049A,2026-06-26T19:50:53.987136,1.00269293,.00004676,0.0120,4.4787,257.4667,45.7219,0,U,43488,999,2951,0,-.257E-5,0
FENGYUN 2H,2018-050A,2026-06-26T21:29:05.809632,1.00269790,.00016888,3.0566,78.9671,123.5621,114.0956,0,U,43491,999,2953,0,-.121E-5,0
BEIDOU-2 IGSO-7,2018-057A,2026-06-26T12:08:29.940576,1.00249004,.0104768,55.1970,162.9757,237.9790,164.9478,0,U,43539,999,2922,0,-.28E-6,0
TELSTAR 19V,2018-059A,2026-06-26T19:05:54.394944,1.00270531,.00030199,0.0157,103.6485,12.3979,22.3384,0,U,43562,999,2924,0,-.268E-5,0
TELKOM 4 (MERAH PUTIH),2018-064A,2026-06-26T18:12:06.968736,1.00272508,.00016635,0.0163,66.0097,51.8795,178.0138,0,U,43587,999,2897,0,-.333E-5,0
TELSTAR 18V,2018-069A,2026-06-26T18:20:28.666752,1.00270168,.00021221,0.0179,339.3968,113.8548,234.7334,0,U,43611,999,2873,0,-.283E-5,0
AZERSPACE 2 (IS-38),2018-074A,2026-06-25T04:15:28.573056,1.00272596,.00015866,0.0035,82.5969,10.3273,289.3716,0,U,43632,999,2852,0,.146E-5,0
HORIZONS-3E,2018-074B,2026-06-26T21:54:40.857696,1.00268864,.00006271,0.0051,291.0865,17.8683,103.7557,0,U,43633,999,2843,0,-.19E-6,0
AEHF-4 (USA 288),2018-079A,2026-06-26T22:29:53.890656,1.00270048,.00600896,1.4351,4.8057,355.9197,184.2710,0,U,43651,999,2839,0,-.264E-5,0
BEIDOU-3 G1,2018-085A,2026-06-26T18:26:43.069056,1.00271021,.00085334,2.8930,97.1153,351.5898,262.7888,0,U,43683,999,2815,0,-.1E-5,0
