TDRS 13                 
1 42915U 17047A   26177.94852351 -.00000090  00000+0  00000+0 0  9998
2 42915   3.4539   2.9816 0015095 107.2592 134.8666  1.00272686 32448
QZS-3 (MICHIBIKI-3)     
1 42917U 17048A   26177.90465285 -.00000336  00000+0  00000+0 0  9996
2 42917   0.0678 147.8339 0002279 304.0996 275.8116  1.00272025 32354
AMAZONAS 5              
1 42934U 17053A   26177.82627668 -.00000271  00000+0  00000+0 0  9995
2 42934   0.0317 326.0602 0001938  89.2725  96.0689  1.00272475 32144
ASIASAT 9               
1 42942U 17057A   26177.90369951  .00000000  00000+0  00000+0 0  9994
2 42942   0.0434  55.4010 0002443  35.9744 271.1398  1.00265208 31957
INTELSAT 37E (IS-37E)   
1 42950U 17059A   26177.94706986 -.00000129  00000+0  00000+0 0  9995
2 42950   0.0045  90.6455 0002894   4.0163 143.3493  1.00271504 32166
BSAT-4A                 
1 42951U 17059B   26177.90127284 -.00000339  00000+0  00000+0 0  9993
2 42951   0.0360  17.2101 0004230  57.3191 274.7770  1.00271162 31894
QZS-4 (MICHIBIKI-4)     
1 42965U 17062A   26177.33476632 -.00000355  00000+0  00000+0 0  9991
2 42965  40.1041 343.3683 0746721 268.2556 281.2054  1.00296962 31897
SES-11 (ECHOSTAR 105)   
1 42967U 17063A   26177.92997594 -.00000078  00000+0  00000+0 0  9996
2 42967   0.0314 306.9023 0002991 145.4380  52.5543  1.00271734 31820
KOREASAT 5A             
1 42984U 17067A   26177.90187950 -.00000347  00000+0  00000+0 0  9993
2 42984   0.0102 346.7697 0000857 101.3365 264.7436  1.00271912 31620
ALCOMSAT 1              
1 43039U 17078A   26177.94585653  .00000000  00000+0  00000+0 0  9998
2 43039   0.0211  18.6482 0002670  73.2355 138.8877  1.00269952 31396
SBIRS GEO-3 (USA 282)   
1 43162U 18009A   26177.77661409  .00000138  00000+0  00000+0 0  9997
2 43162   2.1908  12.5664 0002293  75.5982 306.9091  1.00272657 30948
AL YAH 3                
1 43174U 18012A   26177.94680986 -.00000145  00000+0  00000+0 0  9993
2 43174   1.5767  83.0038 0004167   9.9835 142.8139  1.00272112 30941
SES-14                  
1 43175U 18012B   26177.72734478 -.00000267  00000+0  00000+0 0  9991
2 43175   0.0158  25.1497 0001255  67.1059  36.9323  1.00271622  7122
GOES 17                 
1 43226U 18022A   26177.93309595 -.00000172  00000+0  00000+0 0  9995
2 43226   0.9614  85.5525 0000708  25.0503  50.8525  1.00272726 30521
HISPASAT 30W-6          
1 43228U 18023A   26177.44581597 -.00000205  00000+0  00000+0 0  9995
2 43228   0.0436  43.2096 0005973  33.8480 327.9970  1.00273554 30498
SUPERBIRD-B3            
1 43271U 18033A   26177.91158622 -.00000080  00000+0  00000+0 0  9996
2 43271   0.0160 348.0005 0001336 109.2975 307.9054  1.00276687 30156
HYLAS 4                 
1 43272U 18033B   26175.80542227  .00000000  00000+0  00000+0 0  9992
2 43272   0.0258  22.8939 0001030  96.9112  49.5742  1.00269267 30142
IRNSS-1I                
1 43286U 18035A   26175.79975266  .00000066  00000+0  00000+0 0  9992
2 43286  28.7725  74.0767 0017621 182.3144 359.3363  1.00275960 30158
USA 283                 
1 43339U 18036A   26176.40866242  .00000000  00000+0  00000+0 0  9992
2 43339   0.0077   1.2048 0000352  95.8048  97.7845  1.00269479 25372
COSMOS 2526             
1 43432U 18037A   26177.04937186 -.00000334  00000+0  00000+0 0  9995
2 43432   0.0264  47.8004 0000579 196.3187 175.8792  1.00269587 30043
APSTAR-6C               
1 43450U 18041A   26177.76344068 -.00000306  00000+0  00000+0 0  9999
2 43450   0.0216 353.2606 0000717  18.4932 311.9826  1.00271266 29909
BANGABANDHUSAT-1        
1 43463U 18044A   26177.90309285 -.00000351  00000+0  00000+0 0  9994
2 43463   0.0168  51.4453 0002060  48.4752 259.3153  1.00272367 29802
SES-12                  
1 43488U 18049A   26177.82701374 -.00000257  00000+0  00000+0 0  9997
2 43488   0.0120   4.4787 0000467 257.4667  45.7219  1.00269293 29513
FENGYUN 2H              
1 43491U 18050A   26177.89520613 -.00000121  00000+0  00000+0 0  9995
2 43491   3.0566  78.9671 0001688 123.5621 114.0956  1.00269790 29533
BEIDOU-2 IGSO-7         
1 43539U 18057A   26177.50590209 -.00000028  00000+0  00000+0 0  9997
2 43539  55.1970 162.9757 0104768 237.9790 164.9478  1.00249004 29227
TELSTAR 19V             
1 43562U 18059A   26177.79576846 -.00000268  00000+0  00000+0 0  9993
2 43562   0.0157 103.6485 0003019  12.3979  22.3384  1.00270531 29244
TELKOM 4 (MERAH PUTIH)  
1 43587U 18064A   26177.75841399 -.00000333  00000+0  00000+0 0  9993
2 43587   0.0163  66.0097 0001663  51.8795 178.0138  1.00272508 28977
TELSTAR 18V             
1 43611U 18069A   26177.76422068 -.00000283  00000+0  00000+0 0  9999
2 43611   0.0179 339.3968 0002122 113.8548 234.7334  1.00270168 28733
AZERSPACE 2 (IS-38)     
1 43632U 18074A   26176.17741404  .00000146  00000+0  00000+0 0  9997
2 43632   0.0035  82.5969 0001586  10.3273 289.3716  1.00272596 28528
HORIZONS-3E             
1 43633U 18074B   26177.91297289 -.00000019  00000+0  00000+0 0  9998
2 43633   0.0051 291.0865 0000627  17.8683 103.7557  1.00268864 28436
AEHF-4 (USA 288)        
1 43651U 18079A   26177.93742929 -.00000264  00000+0  00000+0 0  9993
2 43651   1.4351   4.8057 0060089 355.9197 184.2710  1.00270048 28398
BEIDOU-3 G1             
1 43683U 18085A   26177.76855404 -.00000100  00000+0  00000+0 0  9998
2 43683   2.8930  97.1153 0008533 351.5898 262.7888  1.00271021 28153
